GEESAT-5 08             
1 65557U 25201H   26165.83948086  .00001457  00000+0  20539-3 0  9992
2 65557  49.9816  46.5585 0001960 306.4150  53.6607 14.82857959 41500
GEESAT-5 09             
1 65558U 25201J   26165.93155388  .00001524  00000+0  20732-3 0  9999
2 65558  49.9822  49.3327 0008526 260.4308  99.5667 14.84165821 41464
GEESAT-5 10             
1 65559U 25201K   26165.85633275  .00001606  00000+0  21706-3 0  9990
2 65559  49.9836  49.6278 0007543 278.3534  81.6549 14.84147756 41452
GEESAT-5 11             
1 65560U 25201L   26165.98379152  .00001535  00000+0  20867-3 0  9995
2 65560  49.9890  49.0919 0008875 334.8611  25.1894 14.84174134 41493
YAOGAN-45               
1 65563U 25202A   26161.10282483  .00000004  00000+0  00000+0 0  9992
2 65563  19.9417 222.1349 0007877 228.7528 131.2228  5.31206589 11712
PRAETORIAN SDA_602      
1 65565U 25203A   26166.07258326  .00000054  00000+0  37557-4 0  9992
2 65565  81.3032  12.7277 0005655 189.9288 170.1758 13.84342535 38400
PRAETORIAN SDA_603      
1 65566U 25203B   26166.09860236  .00000198  00000+0  16778-3 0  9994
2 65566  81.3034  12.6188 0009270 193.4914 166.5996 13.83905275 38415
PRAETORIAN SDA_604      
1 65567U 25203C   26166.04468135  .00000056  00000+0  40431-4 0  9999
2 65567  81.3054  13.0777 0005150 197.7035 162.3942 13.83047247 38388
PRAETORIAN SDA_605      
1 65568U 25203D   26166.08293576  .00000046  00000+0  31021-4 0  9993
2 65568  81.3019  12.7074 0007963 188.8567 171.2450 13.83433992 38403
PRAETORIAN SDA_606      
1 65569U 25203E   26166.06544198  .00000063  00000+0  46305-4 0  9991
2 65569  81.3055  12.9444 0005603 186.8599 173.2481 13.83407170 38392
PRAETORIAN SDA_607      
1 65570U 25203F   26166.00254001  .00000211  00000+0  17872-3 0  9999
2 65570  81.3039  12.6691 0008539 193.7239 166.3687 13.84284300 38408
PRAETORIAN SDA_608      
1 65571U 25203G   26166.05150449  .00000053  00000+0  36820-4 0  9995
2 65571  81.3007  12.7848 0005667 196.7984 163.2986 13.83816576 38399
PRAETORIAN SDA_609      
1 65572U 25203H   26166.05702038  .00000138  00000+0  11345-3 0  9991
2 65572  81.3052  12.7631 0006557 190.8268 169.2749 13.84211201 38409
PRAETORIAN SDA_610      
1 65573U 25203J   26165.95901227  .00000048  00000+0  32300-4 0  9996
2 65573  81.3008  12.8285 0006321 194.6772 165.4202 13.83851662 38387
PRAETORIAN SDA_611      
1 65574U 25203K   26166.10357926  .00000137  00000+0  11413-3 0  9996
2 65574  81.3007  12.8587 0005239 201.0221 159.0720 13.83309458 38397
PRAETORIAN SDA_612      
1 65575U 25203L   26166.02355434  .00000171  00000+0  14049-3 0  9996
2 65575  81.3029  12.5242 0008991 192.9177 167.1752 13.85038800 38413
PRAETORIAN SDA_613      
1 65576U 25203M   26166.10950630  .00000046  00000+0  31735-4 0  9998
2 65576  81.2999  12.8485 0005444 189.6693 170.4359 13.82764825 38394
PRAETORIAN SDA_614      
1 65577U 25203N   26166.08457539  .00000032  00000+0  17597-4 0  9991
2 65577  81.3014  12.5450 0006879 189.5799 170.5228 13.84777874 38422
PRAETORIAN SDA_615      
1 65578U 25203P   26166.06094397  .00000168  00000+0  13974-3 0  9993
2 65578  81.3022  12.5294 0008782 191.2544 168.8418 13.84436027 38413
PRAETORIAN SDA_616      
1 65579U 25203Q   26166.10273095  .00000163  00000+0  13813-3 0  9990
2 65579  81.3063  13.0031 0005156 198.3161 161.7810 13.83267747 38394
PRAETORIAN SDA_617      
1 65580U 25203R   26166.19649525  .00000012  00000+0 -21043-6 0  9997
2 65580  81.3030  12.7478 0007169 189.9473 170.1542 13.83149798 38413
PRAETORIAN SDA_618      
1 65581U 25203S   26166.09961141  .00000189  00000+0  15767-3 0  9995
2 65581  81.3021  12.4238 0009516 193.4866 166.6038 13.84669211 38428
PRAETORIAN SDA_619      
1 65582U 25203T   26166.06195314  .00000127  00000+0  10357-3 0  9996
2 65582  81.3044  12.7527 0007917 191.6135 168.4840 13.83805723 39038
PRAETORIAN SDA_620      
1 65583U 25203U   26166.08965479  .00000111  00000+0  89551-4 0  9992
2 65583  81.3030  12.7478 0007459 186.5736 173.5324 13.83617824 38407
PRAETORIAN SDA_621      
1 65584U 25203V   26166.06371907  .00000047  00000+0  31910-4 0  9992
2 65584  81.3021  12.6903 0007239 184.4824 175.6268 13.83800959 38404
PRAETORIAN SDA_601      
1 65585U 25203W   26166.10571558  .00000170  00000+0  14424-3 0  9999
2 65585  81.3036  12.9455 0005158 201.7679 158.3258 13.83167575 38390
NUSANTARA LIMA (NUSANT*)
1 65588U 25205A   26166.11294561 -.00000353  00000+0  00000+0 0  9996
2 65588   0.0289 116.0533 0000069  81.2743 219.5882  1.00268773  2698
COSMOS 2595 (MOZHAETS 6)
1 65589U 25206A   26165.87322262 -.00000055  00000+0  00000+0 0  9999
2 65589  64.6399 314.9126 0065677 305.1606  54.2088  2.14901177  5903
COSMOS 2596 [GLONASS-K1]
1 65590U 25206B   26161.38985729 -.00000039  00000+0  00000+0 0  9998
2 65590  64.6376 315.2225 0011087 312.7926  24.8898  2.13100656  5767
STARLINK-35267          
1 65592U 25207A   26166.15893397  .00003219  00000+0  22693-3 0  9998
2 65592  97.3568 233.7581 0001801 117.3057 242.8354 15.05658545 42918
